{
    "links": {
        "self": "http://www.neowsapp.com/rest/v1/neo/3757428?api_key=iIulBulltgU6a56xZRHN4H3l9WmuAYTsLGpBGhQ2"
    },
    "id": "3757428",
    "neo_reference_id": "3757428",
    "name": "(2016 NE56)",
    "designation": "2016 NE56",
    "nasa_jpl_url": "http://ssd.jpl.nasa.gov/sbdb.cgi?sstr=3757428",
    "absolute_magnitude_h": 24.9,
    "estimated_diameter": {
        "kilometers": {
            "estimated_diameter_min": 0.0278326768,
            "estimated_diameter_max": 0.0622357573
        },
        "meters": {
            "estimated_diameter_min": 27.8326768072,
            "estimated_diameter_max": 62.2357573367
        },
        "miles": {
            "estimated_diameter_min": 0.0172944182,
            "estimated_diameter_max": 0.0386714948
        },
        "feet": {
            "estimated_diameter_min": 91.3145593761,
            "estimated_diameter_max": 204.1855621004
        }
    },
    "is_potentially_hazardous_asteroid": false,
    "close_approach_data": [
        {
            "close_approach_date": "2016-07-16",
            "close_approach_date_full": "2016-Jul-16 22:28",
            "epoch_date_close_approach": 1468708080000,
            "relative_velocity": {
                "kilometers_per_second": "12.2574581542",
                "kilometers_per_hour": "44126.8493550062",
                "miles_per_hour": "27418.7081450593"
            },
            "miss_distance": {
                "astronomical": "0.0351785342",
                "lunar": "13.6844498038",
                "kilometers": "5262633.786042154",
                "miles": "3270049.0004595652"
            },
            "orbiting_body": "Earth"
        },
        {
            "close_approach_date": "2016-12-25",
            "close_approach_date_full": "2016-Dec-25 10:22",
            "epoch_date_close_approach": 1482661320000,
            "relative_velocity": {
                "kilometers_per_second": "10.030732946",
                "kilometers_per_hour": "36110.638605654",
                "miles_per_hour": "22437.746526941"
            },
            "miss_distance": {
                "astronomical": "0.4197980932",
                "lunar": "163.3014582548",
                "kilometers": "62800900.572781484",
                "miles": "39022670.1106691192"
            },
            "orbiting_body": "Earth"
        },
        {
            "close_approach_date": "2101-07-31",
            "close_approach_date_full": "2101-Jul-31 23:35",
            "epoch_date_close_approach": 4152296100000,
            "relative_velocity": {
                "kilometers_per_second": "9.4900155635",
                "kilometers_per_hour": "34164.0560286508",
                "miles_per_hour": "21228.2158140247"
            },
            "miss_distance": {
                "astronomical": "0.1656364352",
                "lunar": "64.4325732928",
                "kilometers": "24778857.900313024",
                "miles": "15396868.3369827712"
            },
            "orbiting_body": "Earth"
        }
    ],
    "orbital_data": {
        "orbit_id": "2",
        "orbit_determination_date": "2017-04-06 08:24:52",
        "first_observation_date": "2016-07-09",
        "last_observation_date": "2016-07-13",
        "data_arc_in_days": 4,
        "observations_used": 24,
        "orbit_uncertainty": "8",
        "minimum_orbit_intersection": ".0322524",
        "jupiter_tisserand_invariant": "4.722",
        "epoch_osculation": "2457580.5",
        "eccentricity": ".3376558538665327",
        "semi_major_axis": "1.370759637697042",
        "inclination": "16.6762311996664",
        "ascending_node_longitude": "111.4152280762695",
        "orbital_period": "586.1926773110888",
        "perihelion_distance": ".9079146217846682",
        "perihelion_argument": "244.4503894697012",
        "aphelion_distance": "1.833604653609415",
        "perihelion_time": "2457636.807804255131",
        "mean_anomaly": "325.4195449441113",
        "mean_motion": ".6141325436737761",
        "equinox": "J2000",
        "orbit_class": {
            "orbit_class_type": "APO",
            "orbit_class_description": "Near-Earth asteroid orbits which cross the Earth’s orbit similar to that of 1862 Apollo",
            "orbit_class_range": "a (semi-major axis) > 1.0 AU; q (perihelion) < 1.017 AU"
        }
    },
    "is_sentry_object": false
}